{
  "type": "FeatureCollection",
  "features": [
    {
      "type": "Feature",
      "properties": {
        "norad_id": 34682,
        "name": "COSMOS 2251 DEB",
        "group": "cosmos-2251-debris",
        "lat": 72.40619360249026,
        "lon": 170.8990060763929,
        "alt_km": 688.9499666103202,
        "timestamp": "2025-12-27T05:29:39.599351+00:00",
        "meta_object_name": "COSMOS 2251 DEB",
        "meta_object_id": "1993-036YC",
        "meta_epoch": "2025-12-26T10:59:56.985216",
        "meta_mean_motion": 14.58986832,
        "meta_eccentricity": 0.0017558,
        "meta_inclination": 74.0392,
        "meta_ra_of_asc_node": 56.8597,
        "meta_arg_of_pericenter": 188.466,
        "meta_mean_anomaly": 183.2247,
        "meta_ephemeris_type": 0,
        "meta_classification_type": "U",
        "meta_norad_cat_id": 34682,
        "meta_element_set_no": 999,
        "meta_rev_at_epoch": 88886,
        "meta_bstar": 0.00071513,
        "meta_mean_motion_dot": 3.336e-05,
        "meta_mean_motion_ddot": 0,
        "tle_line1": "1 34682U 93036YC  25360.45829844  .00003336  00000+0  71513-3 0  9998",
        "tle_line2": "2 34682  74.0392  56.8597 0017558 188.4660 183.2247 14.58986832888868"
      },
      "geometry": {
        "type": "Point",
        "coordinates": [
          170.8990060763929,
          72.40619360249026
        ]
      }
    },
    {
      "type": "Feature",
      "properties": {
        "norad_id": 34683,
        "name": "COSMOS 2251 DEB",
        "group": "cosmos-2251-debris",
        "lat": -3.764601707598423,
        "lon": -114.51398298047505,
        "alt_km": 669.1091135888291,
        "timestamp": "2025-12-27T05:29:39.599361+00:00",
        "meta_object_name": "COSMOS 2251 DEB",
        "meta_object_id": "1993-036YD",
        "meta_epoch": "2025-12-25T15:38:47.520960",
        "meta_mean_motion": 14.64647296,
        "meta_eccentricity": 0.0017296,
        "meta_inclination": 74.0287,
        "meta_ra_of_asc_node": 67.4379,
        "meta_arg_of_pericenter": 182.0594,
        "meta_mean_anomaly": 330.0429,
        "meta_ephemeris_type": 0,
        "meta_classification_type": "U",
        "meta_norad_cat_id": 34683,
        "meta_element_set_no": 999,
        "meta_rev_at_epoch": 88537,
        "meta_bstar": 0.0012249,
        "meta_mean_motion_dot": 6.502e-05,
        "meta_mean_motion_ddot": 0,
        "tle_line1": "1 34683U 93036YD  25359.65193890  .00006502  00000+0  12249-2 0  9992",
        "tle_line2": "2 34683  74.0287  67.4379 0017296 182.0594 330.0429 14.64647296885375"
      },
      "geometry": {
        "type": "Point",
        "coordinates": [
          -114.51398298047505,
          -3.764601707598423
        ]
      }
    },
    {
      "type": "Feature",
      "properties": {
        "norad_id": 34685,
        "name": "COSMOS 2251 DEB",
        "group": "cosmos-2251-debris",
        "lat": -29.371286646974262,
        "lon": 111.95624097461996,
        "alt_km": 708.6063031172016,
        "timestamp": "2025-12-27T05:29:39.599371+00:00",
        "meta_object_name": "COSMOS 2251 DEB",
        "meta_object_id": "1993-036YF",
        "meta_epoch": "2025-12-26T14:54:43.184160",
        "meta_mean_motion": 14.57632396,
        "meta_eccentricity": 0.0014147,
        "meta_inclination": 74.0295,
        "meta_ra_of_asc_node": 122.3864,
        "meta_arg_of_pericenter": 227.7376,
        "meta_mean_anomaly": 154.4807,
        "meta_ephemeris_type": 0,
        "meta_classification_type": "U",
        "meta_norad_cat_id": 34685,
        "meta_element_set_no": 999,
        "meta_rev_at_epoch": 88734,
        "meta_bstar": 0.0011969,
        "meta_mean_motion_dot": 5.438e-05,
        "meta_mean_motion_ddot": 0,
        "tle_line1": "1 34685U 93036YF  25360.62133315  .00005438  00000+0  11969-2 0  9994",
        "tle_line2": "2 34685  74.0295 122.3864 0014147 227.7376 154.4807 14.57632396887347"
      },
      "geometry": {
        "type": "Point",
        "coordinates": [
          111.95624097461996,
          -29.371286646974262
        ]
      }
    },
    {
      "type": "Feature",
      "properties": {
        "norad_id": 34689,
        "name": "COSMOS 2251 DEB",
        "group": "cosmos-2251-debris",
        "lat": -65.70357346141206,
        "lon": 158.99137721234484,
        "alt_km": 734.964903031705,
        "timestamp": "2025-12-27T05:29:39.599381+00:00",
        "meta_object_name": "COSMOS 2251 DEB",
        "meta_object_id": "1993-036YK",
        "meta_epoch": "2025-12-26T14:43:37.408224",
        "meta_mean_motion": 14.04610227,
        "meta_eccentricity": 0.0226452,
        "meta_inclination": 74.0872,
        "meta_ra_of_asc_node": 199.2539,
        "meta_arg_of_pericenter": 265.0124,
        "meta_mean_anomaly": 152.4222,
        "meta_ephemeris_type": 0,
        "meta_classification_type": "U",
        "meta_norad_cat_id": 34689,
        "meta_element_set_no": 999,
        "meta_rev_at_epoch": 84536,
        "meta_bstar": 0.0031359,
        "meta_mean_motion_dot": 6.283e-05,
        "meta_mean_motion_ddot": 0,
        "tle_line1": "1 34689U 93036YK  25360.61362741  .00006283  00000+0  31359-2 0  9998",
        "tle_line2": "2 34689  74.0872 199.2539 0226452 265.0124 152.4222 14.04610227845360"
      },
      "geometry": {
        "type": "Point",
        "coordinates": [
          158.99137721234484,
          -65.70357346141206
        ]
      }
    },
    {
      "type": "Feature",
      "properties": {
        "norad_id": 34721,
        "name": "COSMOS 2251 DEB",
        "group": "cosmos-2251-debris",
        "lat": -70.65429769034183,
        "lon": -114.11652962396317,
        "alt_km": 792.3194525888866,
        "timestamp": "2025-12-27T05:29:39.599392+00:00",
        "meta_object_name": "COSMOS 2251 DEB",
        "meta_object_id": "1993-036YP",
        "meta_epoch": "2025-12-26T19:42:50.469408",
        "meta_mean_motion": 13.96904496,
        "meta_eccentricity": 0.02225106,
        "meta_inclination": 73.9226,
        "meta_ra_of_asc_node": 301.8159,
        "meta_arg_of_pericenter": 238.149,
        "meta_mean_anomaly": 152.4925,
        "meta_ephemeris_type": 0,
        "meta_classification_type": "U",
        "meta_norad_cat_id": 34721,
        "meta_element_set_no": 999,
        "meta_rev_at_epoch": 85346,
        "meta_bstar": 0.0010089591,
        "meta_mean_motion_dot": 1.706e-05,
        "meta_mean_motion_ddot": 0,
        "tle_line1": "1 34721U 93036YP  25360.82141747  .00001706  00000+0  10090-2 0  9993",
        "tle_line2": "2 34721  73.9226 301.8159 0222510 238.1490 152.4925 13.96904496853469"
      },
      "geometry": {
        "type": "Point",
        "coordinates": [
          -114.11652962396317,
          -70.65429769034183
        ]
      }
    },
    {
      "type": "Feature",
      "properties": {
        "norad_id": 34722,
        "name": "COSMOS 2251 DEB",
        "group": "cosmos-2251-debris",
        "lat": -28.622052482147236,
        "lon": 139.30932022131606,
        "alt_km": 747.3346020379695,
        "timestamp": "2025-12-27T05:29:39.599402+00:00",
        "meta_object_name": "COSMOS 2251 DEB",
        "meta_object_id": "1993-036YQ",
        "meta_epoch": "2025-12-25T22:10:17.507136",
        "meta_mean_motion": 14.11971511,
        "meta_eccentricity": 0.0166401,
        "meta_inclination": 73.8736,
        "meta_ra_of_asc_node": 312.5518,
        "meta_arg_of_pericenter": 235.7883,
        "meta_mean_anomaly": 183.3029,
        "meta_ephemeris_type": 0,
        "meta_classification_type": "U",
        "meta_norad_cat_id": 34722,
        "meta_element_set_no": 999,
        "meta_rev_at_epoch": 86431,
        "meta_bstar": 0.00064598,
        "meta_mean_motion_dot": 1.32e-05,
        "meta_mean_motion_ddot": 0,
        "tle_line1": "1 34722U 93036YQ  25359.92381374  .00001320  00000+0  64598-3 0  9990",
        "tle_line2": "2 34722  73.8736 312.5518 0166401 235.7883 183.3029 14.11971511864312"
      },
      "geometry": {
        "type": "Point",
        "coordinates": [
          139.30932022131606,
          -28.622052482147236
        ]
      }
    },
    {
      "type": "Feature",
      "properties": {
        "norad_id": 34726,
        "name": "COSMOS 2251 DEB",
        "group": "cosmos-2251-debris",
        "lat": -16.481915340469506,
        "lon": 143.54382034559447,
        "alt_km": 700.1923999722339,
        "timestamp": "2025-12-27T05:29:39.599413+00:00",
        "meta_object_name": "COSMOS 2251 DEB",
        "meta_object_id": "1993-036YU",
        "meta_epoch": "2025-12-26T22:01:07.018176",
        "meta_mean_motion": 14.59540361,
        "meta_eccentricity": 0.00416807,
        "meta_inclination": 74.0294,
        "meta_ra_of_asc_node": 319.2772,
        "meta_arg_of_pericenter": 105.4857,
        "meta_mean_anomaly": 255.0917,
        "meta_ephemeris_type": 0,
        "meta_classification_type": "U",
        "meta_norad_cat_id": 34726,
        "meta_element_set_no": 999,
        "meta_rev_at_epoch": 88709,
        "meta_bstar": 0.00057855589,
        "meta_mean_motion_dot": 2.753e-05,
        "meta_mean_motion_ddot": 0,
        "tle_line1": "1 34726U 93036YU  25360.91744234  .00002753  00000+0  57856-3 0  9993",
        "tle_line2": "2 34726  74.0294 319.2772 0041680 105.4857 255.0917 14.59540361887099"
      },
      "geometry": {
        "type": "Point",
        "coordinates": [
          143.54382034559447,
          -16.481915340469506
        ]
      }
    }
  ]
}